NORAD_CAT_ID,OBJECT_NAME,OBJECT_TYPE,EPOCH,MEAN_MOTION,ECCENTRICITY,INCLINATION,RA_OF_ASC_NODE,ARG_OF_PERICENTER,MEAN_ANOMALY,BSTAR,MEAN_MOTION_DOT,MEAN_MOTION_DDOT,TLE_LINE0,TLE_LINE1,TLE_LINE2,SEMIMAJOR_AXIS,PERIOD,APOGEE,PERIGEE,DECAYED
51150.0,STARLINK-3357,PAYLOAD,2023-01-14 20:04:52,15.08839628,0.0002020999999999,53.2154,61.0252,37.9137,322.1997,0.00036701,5.558e-05,0.0,0 STARLINK-3357,1 51150U 22005AY  23014.83672052  .00005558  00000-0  36701-3 0  9997,2 51150  53.2154  61.0252 0002021  37.9137 322.1997 15.08839628 56267,6917.882,95.438,541.145,538.3480000000001,0.0
51150.0,STARLINK-3357,PAYLOAD,2023-01-15 02:26:25,15.08832776,0.0001958,53.2166,59.8378,43.3032,316.8114,0.0001267,1.728e-05,0.0,0 STARLINK-3357,1 51150U 22005AY  23015.10168420  .00001728  00000-0  12670-3 0  9991,2 51150  53.2166  59.8378 0001958  43.3032 316.8114 15.08832776 56300,6917.901999999999,95.438,541.122,538.413,0.0
51150.0,STARLINK-3357,PAYLOAD,2023-01-15 11:58:44,15.08848381,0.0002383,53.2146,58.0533,45.7703,314.3484,0.00074687,0.00011621,0.0,0 STARLINK-3357,1 51150U 22005AY  23015.49912408  .00011621  00000-0  74687-3 0  9995,2 51150  53.2146  58.0533 0002383  45.7703 314.3484 15.08848381 56364,6917.855,95.437,541.368,538.071,0.0
51150.0,STARLINK-3357,PAYLOAD,2023-01-15 19:55:39,15.08843168,0.0001754999999999,53.2151,56.5658,43.5396,316.5734,0.00070025,0.00010875,0.0,0 STARLINK-3357,1 51150U 22005AY  23015.83032346  .00010875  00000-0  70025-3 0  9999,2 51150  53.2151  56.5658 0001755  43.5396 316.5734 15.08843168 56413,6917.871,95.437,540.95,538.5219999999999,0.0
51150.0,STARLINK-3357,PAYLOAD,2023-01-16 11:49:30,15.08867799,0.0001876999999999,53.2138,53.5893,57.8816,302.2358,0.00116,0.00018236,0.0,0 STARLINK-3357,1 51150U 22005AY  23016.49271644  .00018236  00000-0  11600-2 0  9990,2 51150  53.2138  53.5893 0001877  57.8816 302.2358 15.08867799 55404,6917.795,95.436,540.9590000000001,538.362,0.0
51150.0,STARLINK-3357,PAYLOAD,2023-01-16 19:46:26,15.08839359,0.0001781,53.2149,52.1041,55.9741,304.142,-0.00013359,-2.414e-05,0.0,0 STARLINK-3357,1 51150U 22005AY  23016.82392073 -.00002414  00000-0 -13359-3 0  9994,2 51150  53.2149  52.1041 0001781  55.9741 304.1420 15.08839359 56566,6917.882,95.438,540.979,538.515,0.0
51150.0,STARLINK-3357,PAYLOAD,2023-01-17 02:08:00,15.08816154,0.0002103,53.214,50.9165,57.6141,302.5054,-0.00065949,-0.00010762,0.0,0 STARLINK-3357,1 51150U 22005AY  23017.08888972 -.00010762  00000-0 -65949-3 0  9998,2 51150  53.2140  50.9165 0002103  57.6141 302.5054 15.08816154 56600,6917.953,95.439,541.273,538.363,0.0
51150.0,STARLINK-3357,PAYLOAD,2023-01-17 08:29:33,15.0881607,0.0001974,53.2138,49.7266,61.5044,298.6147,-0.00021767,-3.749e-05,0.0,0 STARLINK-3357,1 51150U 22005AY  23017.35385442 -.00003749  00000-0 -21767-3 0  9999,2 51150  53.2138  49.7266 0001974  61.5044 298.6147 15.08816070 55532,6917.954000000001,95.439,541.184,538.453,0.0
51150.0,STARLINK-3357,PAYLOAD,2023-01-18 06:44:57,15.08875267,0.0001749,53.2145,45.5615,70.6386,289.4795,0.0027259,0.00043404,0.0,0 STARLINK-3357,1 51150U 22005AY  23018.28121844  .00043404  00000-0  27259-2 0  9997,2 51150  53.2145  45.5615 0001749  70.6386 289.4795 15.08875267 56780,6917.773,95.435,540.8480000000001,538.428,0.0
51150.0,STARLINK-3357,PAYLOAD,2023-01-18 08:20:20,15.08879649,0.0001733999999999,53.215,45.2647,68.8281,291.2896,0.002717,0.00043266,0.0,0 STARLINK-3357,1 51150U 22005AY  23018.34745711  .00043266  00000-0  27170-2 0  9997,2 51150  53.2150  45.2647 0001734  68.8281 291.2896 15.08879649 55684,6917.759,95.435,540.8240000000001,538.425,0.0
51150.0,STARLINK-3357,PAYLOAD,2023-01-19 00:14:11,15.08878229,0.0001896,53.2134,42.2922,61.8591,298.2593,0.0020053,0.00031805,0.0,0 STARLINK-3357,1 51150U 22005AY  23019.00985265  .00031805  00000-0  20053-2 0  9990,2 51150  53.2134  42.2922 0001896  61.8591 298.2593 15.08878229 56893,6917.764,95.435,540.94,538.317,0.0
51150.0,STARLINK-3357,PAYLOAD,2023-01-19 11:21:52,15.0887763,0.0001597,53.2149,40.2091,77.5951,282.522,0.0019717,0.00031264,0.0,0 STARLINK-3357,1 51150U 22005AY  23019.47352479  .00031264  00000-0  19717-2 0  9990,2 51150  53.2149  40.2091 0001597  77.5951 282.5220 15.08877630 56962,6917.765,95.435,540.735,538.526,0.0
51150.0,STARLINK-3357,PAYLOAD,2023-01-19 17:43:25,15.08845094,0.0002015,53.2156,39.0203,80.6793,279.4427,0.0013852,0.00021829,0.0,0 STARLINK-3357,1 51150U 22005AY  23019.73848964  .00021829  00000-0  13852-2 0  9998,2 51150  53.2156  39.0203 0002015  80.6793 279.4427 15.08845094 57005,6917.865,95.437,541.124,538.336,0.0
51150.0,STARLINK-3357,PAYLOAD,2023-01-20 11:12:39,15.08850435,0.0001678,53.2145,35.7491,92.4667,267.6517,0.0013324,0.00020987,0.0,0 STARLINK-3357,1 51150U 22005AY  23020.46712835  .00020987  00000-0  13324-2 0  9995,2 51150  53.2145  35.7491 0001678  92.4667 267.6517 15.08850435 57116,6917.848000000001,95.437,540.874,538.553,0.0
51150.0,STARLINK-3357,PAYLOAD,2023-01-20 17:34:12,15.08845515,0.0001604,53.2155,34.5564,83.9246,276.1929,0.00071394,0.00011094,0.0,0 STARLINK-3357,1 51150U 22005AY  23020.73208978  .00011094  00000-0  71394-3 0  9994,2 51150  53.2155  34.5564 0001604  83.9246 276.1929 15.08845515 57151,6917.8640000000005,95.437,540.8380000000001,538.619,0.0
51150.0,STARLINK-3357,PAYLOAD,2023-01-21 07:52:41,15.08842239,0.0001813,53.2159,31.8852,101.0702,259.0494,0.00067824,0.00010523,0.0,0 STARLINK-3357,1 51150U 22005AY  23021.32825293  .00010523  00000-0  67824-3 0  9994,2 51150  53.2159  31.8852 0001813 101.0702 259.0494 15.08842239 57243,6917.874,95.437,540.993,538.484,0.0
51150.0,STARLINK-3357,PAYLOAD,2023-01-22 09:18:50,15.08858301,0.00015,53.2132,27.1239,79.4325,280.6836,0.0007732,0.00012045,0.0,0 STARLINK-3357,1 51150U 22005AY  23022.38808953  .00012045  00000-0  77320-3 0  9998,2 51150  53.2132  27.1239 0001500  79.4325 280.6836 15.08858301 57408,6917.8240000000005,95.436,540.727,538.6519999999999,0.0
51150.0,STARLINK-3357,PAYLOAD,2023-01-22 17:15:46,15.08836205,0.0001429,53.2132,25.6357,104.6271,255.488,3.9369e-06,-2.25e-06,0.0,0 STARLINK-3357,1 51150U 22005AY  23022.71929019 -.00000225  00000-0  39369-5 0  9993,2 51150  53.2132  25.6357 0001429 104.6271 255.4880 15.08836205 57456,6917.892,95.438,540.746,538.768,0.0
51150.0,STARLINK-3357,PAYLOAD,2023-01-23 05:58:52,15.08827482,9.38e-05,53.2144,23.2601,113.9755,246.1335,-0.0001124,-2.075e-05,0.0,0 STARLINK-3357,1 51150U 22005AY  23023.24921840 -.00002075  00000-0 -11240-3 0  9998,2 51150  53.2144  23.2601 0000938 113.9755 246.1335 15.08827482 57537,6917.919,95.438,540.433,539.135,0.0
51150.0,STARLINK-3357,PAYLOAD,2023-01-24 05:49:39,15.08840205,0.0001694,53.2147,18.7969,91.7865,268.3321,0.00054431,8.385e-05,0.0,0 STARLINK-3357,1 51150U 22005AY  23024.24282307  .00008385  00000-0  54431-3 0  9994,2 51150  53.2147  18.7969 0001694  91.7865 268.3321 15.08840205 57686,6917.88,95.438,540.9169999999999,538.573,0.0
51150.0,STARLINK-3357,PAYLOAD,2023-01-25 02:29:40,15.08846054,0.0001395,53.2155,14.929,96.763,263.3521,0.00054043,8.325e-05,0.0,0 STARLINK-3357,1 51150U 22005AY  23025.10394274  .00008325  00000-0  54043-3 0  9990,2 51150  53.2155  14.9290 0001395  96.7630 263.3521 15.08846054 57813,6917.861999999999,95.437,540.692,538.762,0.0
51150.0,STARLINK-3357,PAYLOAD,2023-01-25 08:51:12,15.08856529,0.0001413,53.2149,13.7394,98.3671,261.7481,0.00077024,0.00011997,0.0,0 STARLINK-3357,1 51150U 22005AY  23025.36889977  .00011997  00000-0  77024-3 0  9990,2 51150  53.2149  13.7394 0001413  98.3671 261.7481 15.08856529 56748,6917.83,95.437,540.672,538.717,0.0
51150.0,STARLINK-3357,PAYLOAD,2023-01-26 02:20:27,15.08847369,0.0001625,53.2149,10.4671,105.395,254.7222,0.00030021,4.494e-05,0.0,0 STARLINK-3357,1 51150U 22005AY  23026.09754056  .00004494  00000-0  30021-3 0  9990,2 51150  53.2149  10.4671 0001625 105.3950 254.7222 15.08847369 57966,6917.858,95.437,540.847,538.599,0.0
51150.0,STARLINK-3357,PAYLOAD,2023-01-26 08:41:59,15.08851908,0.0001411,53.2152,9.2804,84.6429,275.4724,0.00059396,9.181e-05,0.0,0 STARLINK-3357,1 51150U 22005AY  23026.36249932  .00009181  00000-0  59396-3 0  9996,2 51150  53.2152   9.2804 0001411  84.6429 275.4724 15.08851908 56899,6917.844,95.437,540.685,538.7330000000001,0.0
51150.0,STARLINK-3357,PAYLOAD,2023-01-27 02:11:14,15.08840815,0.0001439,53.2155,6.0077,85.4012,274.7145,0.00013036,1.787e-05,0.0,0 STARLINK-3357,1 51150U 22005AY  23027.09114137  .00001787  00000-0  13036-3 0  9990,2 51150  53.2155   6.0077 0001439  85.4012 274.7145 15.08840815 58117,6917.878000000001,95.438,540.738,538.747,0.0
51150.0,STARLINK-3357,PAYLOAD,2023-01-27 08:32:46,15.08854769,0.0001375999999999,53.2158,4.8191,88.9569,271.1581,0.00042971,6.56e-05,0.0,0 STARLINK-3357,1 51150U 22005AY  23027.35609635  .00006560  00000-0  42971-3 0  9995,2 51150  53.2158   4.8191 0001376  88.9569 271.1581 15.08854769 58150,6917.835,95.437,540.6519999999999,538.748,0.0
51150.0,STARLINK-3357,PAYLOAD,2023-01-28 02:02:01,15.08834672,0.0001094999999999,53.2156,1.5490000000000002,96.5854,263.5263,7.3856e-05,8.88e-06,0.0,0 STARLINK-3357,1 51150U 22005AY  23028.08474249  .00000888  00000-0  73856-4 0  9991,2 51150  53.2156   1.5490 0001095  96.5854 263.5263 15.08834672 58269,6917.897,95.438,540.519,539.004,0.0
51150.0,STARLINK-3357,PAYLOAD,2023-01-28 06:48:11,15.08840851,0.0001098,53.2151,0.6571,90.5354,269.5764,0.00036961,5.6e-05,0.0,0 STARLINK-3357,1 51150U 22005AY  23028.28346273  .00005600  00000-0  36961-3 0  9990,2 51150  53.2151   0.6571 0001098  90.5354 269.5764 15.08840851 57184,6917.878,95.438,540.502,538.983,0.0
51150.0,STARLINK-3357,PAYLOAD,2023-01-28 21:06:39,15.08843614,0.0001076,53.2151,357.9816,93.8204,266.2911,0.00036237,5.485e-05,0.0,0 STARLINK-3357,1 51150U 22005AY  23028.87962393  .00005485  00000-0  36237-3 0  9999,2 51150  53.2151 357.9816 0001076  93.8204 266.2911 15.08843614 57278,6917.869,95.437,540.479,538.99,0.0
